OBJECT_NAME,OBJECT_ID,EPOCH,MEAN_MOTION,ECCENTRICITY,INCLINATION,RA_OF_ASC_NODE,ARG_OF_PERICENTER,MEAN_ANOMALY,EPHEMERIS_TYPE,CLASSIFICATION_TYPE,NORAD_CAT_ID,ELEMENT_SET_NO,REV_AT_EPOCH,BSTAR,MEAN_MOTION_DOT,MEAN_MOTION_DDOT
PROBA-1,2001-049B,2026-06-03T22:15:28.852128,15.07435237,.00553982,97.9597,162.9974,165.9939,194.2840,0,U,26958,999,34162,.71664231E-4,.1052E-4,0
CUTE-1 (CO-55),2003-031E,2026-06-03T13:11:18.293856,14.24327019,.00086909,98.6736,163.2800,219.4250,140.6297,0,U,27844,999,18973,.16425086E-3,.336E-5,0
CUBESAT XI-IV (CO-57),2003-031J,2026-06-01T00:01:20.276832,14.23611465,.00082889,98.6768,160.4891,248.3946,111.6350,0,U,27848,999,18907,.14575851E-3,.288E-5,0
APRIZESAT 4,2009-041D,2026-06-03T03:55:49.467072,14.83859127,.00434484,98.1413,229.2048,8.9660,351.2319,0,U,35684,999,90928,.10958993E-3,.865E-5,0
APRIZESAT 3,2009-041F,2026-06-03T12:33:19.518048,14.96201835,.00630332,98.2057,307.0943,111.6819,249.1129,0,U,35686,999,91433,.15817015E-3,.1788E-4,0
PROBA-2,2009-059B,2026-06-03T19:54:04.609728,14.54856396,.0012464,98.2448,338.3675,326.9323,33.1093,0,U,36037,999,87958,.58806344E-4,.207E-5,0
APRIZESAT 5,2011-044E,2026-06-03T07:01:24.221280,14.81043416,.00533466,98.2453,86.9399,48.4993,312.0779,0,U,37792,999,79673,.17886134E-3,.1362E-4,0
APRIZESAT 6,2011-044F,2026-06-03T15:57:52.859232,14.76895152,.00441591,98.2373,64.8884,128.0800,296.4477,0,U,37793,999,79515,.12460782E-3,.834E-5,0
PROBA-V,2013-021A,2026-06-03T13:18:01.331712,14.23593894,.00044864,98.3577,133.8344,157.0674,203.0707,0,U,39159,999,67917,.50464514E-4,.74E-6,0
APRIZESAT 7,2013-066A,2026-06-03T11:14:31.928640,14.91532678,.00342772,97.7702,107.8862,256.3956,103.3444,0,U,39416,999,67918,.14142157E-3,.1374E-4,0
APRIZESAT 8,2013-066K,2026-06-02T19:33:10.458432,14.87621023,.0045322,97.8214,101.4839,335.0399,24.8626,0,U,39425,999,67753,.149731E-3,.1329E-4,0
BUGSAT-1 (TITA),2014-033E,2026-06-03T21:31:48.951840,15.15434247,.0027031,98.0425,246.6705,224.2267,135.6804,0,U,40014,999,65382,.31330978E-3,.59E-4,0
SAUDISAT 4,2014-033G,2026-06-03T07:44:07.390464,14.79523690,.00461007,97.7567,300.9383,117.7268,242.8631,0,U,40016,999,64402,.12685752E-3,.914E-5,0
APRIZESAT 9,2014-033J,2026-06-03T07:02:21.027552,14.74195339,.00648781,97.9044,287.8329,244.4445,115.0047,0,U,40018,999,64151,.11359589E-3,.722E-5,0
APRIZESAT 10,2014-033K,2026-06-03T14:08:26.481696,14.70870307,.0077837,97.9634,281.8532,317.9677,41.5573,0,U,40019,999,64025,.85308E-4,.493E-5,0
TECHDEMOSAT-1 (TDS-1),2014-037H,2026-06-03T12:52:31.012320,15.13072942,.00050725,98.3810,145.3987,327.0999,32.9913,0,U,40076,999,64616,.53972252E-3,.9479E-4,0
TECHNOSAT,2017-042E,2026-06-03T18:02:20.317056,15.04873630,.00189839,97.4274,312.9235,136.0818,224.1922,0,U,42829,999,48468,.23544048E-3,.3283E-4,0
FLYING LAPTOP,2017-042G,2026-06-03T22:05:09.802176,15.01057120,.00187599,97.4636,310.9691,165.1788,194.9990,0,U,42831,999,48446,.45877449E-3,.583E-4,0
HAWK-A,2018-099H,2026-06-03T15:07:55.738272,15.24472622,.00339778,97.3915,207.0440,335.6771,24.2861,0,U,43765,999,41103,.30263426E-3,.7483E-4,0
HAWK-B,2018-099AN,2026-06-03T15:15:45.037152,15.22666474,.00316605,97.3965,206.4927,354.1895,5.8969,0,U,43794,999,41097,.29685033E-3,.6936E-4,0
HAWK-C,2018-099AT,2026-06-03T02:43:40.439136,15.27890589,.003967,97.3893,207.3775,337.4427,22.5066,0,U,43799,999,41176,.30156271E-3,.8327E-4,0
SALSAT,2020-068K,2026-06-03T12:56:47.029344,15.29589697,.00094244,97.8849,156.7757,1.6764,358.4505,0,U,46495,999,31327,.31027905E-3,.8826E-4,0
HAWK-2C,2021-006CT,2026-06-03T14:08:32.103744,15.34491080,.00052852,97.2279,199.1713,240.1664,119.9054,0,U,47502,999,29741,.21335995E-3,.7053E-4,0
HAWK-2A,2021-006CW,2026-06-03T14:12:19.044576,15.34506342,.00047786,97.2323,199.8437,245.0276,115.0472,0,U,47505,999,29741,.21470532E-3,.7101E-4,0
HAWK-2B,2021-006CZ,2026-06-03T14:06:52.218432,15.34571156,.0005278,97.2190,198.1936,242.0908,117.9802,0,U,47508,999,29741,.23850372E-3,.7914E-4,0
HAWK-3B,2021-059BE,2026-06-03T11:37:43.112928,15.68363041,.00043714,97.6668,349.9088,31.1458,329.0061,0,U,48931,999,27570,.38292111E-3,.43006E-3,0
HAWK-3C,2021-059BX,2026-06-03T13:09:09.525888,15.68377716,.00048231,97.6785,355.6399,32.9687,327.1873,0,U,48948,999,27571,.40350591E-3,.4537E-3,0
HAWK-3A,2021-059CG,2026-06-03T13:09:00.327744,15.68374480,.00047285,97.6731,352.8564,33.6884,326.4676,0,U,48957,999,27571,.42973961E-3,.48338E-3,0
HAWK-5C,2022-057Y,2026-06-02T20:26:24.345024,15.50847845,.0005529,97.6583,312.6023,125.0244,235.1527,0,U,52754,999,22412,.35454E-3,.20406E-3,0
HAWK-5B,2022-057AA,2026-06-03T05:43:40.196352,15.50865178,.00059995,97.6591,311.3622,116.1777,244.0092,0,U,52756,999,22418,.37322743E-3,.21506E-3,0
